{
    "links": {
        "self": "http://www.neowsapp.com/rest/v1/neo/3568306?api_key=iIulBulltgU6a56xZRHN4H3l9WmuAYTsLGpBGhQ2"
    },
    "id": "3568306",
    "neo_reference_id": "3568306",
    "name": "(2011 MJ)",
    "designation": "2011 MJ",
    "nasa_jpl_url": "http://ssd.jpl.nasa.gov/sbdb.cgi?sstr=3568306",
    "absolute_magnitude_h": 22.8,
    "estimated_diameter": {
        "kilometers": {
            "estimated_diameter_min": 0.0732073989,
            "estimated_diameter_max": 0.1636967205
        },
        "meters": {
            "estimated_diameter_min": 73.2073989347,
            "estimated_diameter_max": 163.696720474
        },
        "miles": {
            "estimated_diameter_min": 0.0454889547,
            "estimated_diameter_max": 0.1017163949
        },
        "feet": {
            "estimated_diameter_min": 240.181762721,
            "estimated_diameter_max": 537.0627483999
        }
    },
    "is_potentially_hazardous_asteroid": false,
    "close_approach_data": [
        {
            "close_approach_date": "2007-01-31",
            "close_approach_date_full": "2007-Jan-31 03:59",
            "epoch_date_close_approach": 1170215940000,
            "relative_velocity": {
                "kilometers_per_second": "7.2165881266",
                "kilometers_per_hour": "25979.7172556815",
                "miles_per_hour": "16142.7859803428"
            },
            "miss_distance": {
                "astronomical": "0.1386927559",
                "lunar": "53.9514820451",
                "kilometers": "20748140.867069933",
                "miles": "12892296.9110457554"
            },
            "orbiting_body": "Earth"
        },
        {
            "close_approach_date": "2011-01-04",
            "close_approach_date_full": "2011-Jan-04 14:36",
            "epoch_date_close_approach": 1294151760000,
            "relative_velocity": {
                "kilometers_per_second": "6.3814385434",
                "kilometers_per_hour": "22973.1787561298",
                "miles_per_hour": "14274.639877663"
            },
            "miss_distance": {
                "astronomical": "0.248578485",
                "lunar": "96.697030665",
                "kilometers": "37186811.88382695",
                "miles": "23106813.42743391"
            },
            "orbiting_body": "Earth"
        },
        {
            "close_approach_date": "2011-06-10",
            "close_approach_date_full": "2011-Jun-10 18:20",
            "epoch_date_close_approach": 1307730000000,
            "relative_velocity": {
                "kilometers_per_second": "8.6393447828",
                "kilometers_per_hour": "31101.6412181233",
                "miles_per_hour": "19325.3503446723"
            },
            "miss_distance": {
                "astronomical": "0.1029218915",
                "lunar": "40.0366157935",
                "kilometers": "15396895.744771105",
                "miles": "9567187.379427049"
            },
            "orbiting_body": "Earth"
        },
        {
            "close_approach_date": "2015-06-21",
            "close_approach_date_full": "2015-Jun-21 13:53",
            "epoch_date_close_approach": 1434894780000,
            "relative_velocity": {
                "kilometers_per_second": "15.7591834641",
                "kilometers_per_hour": "56733.0604707208",
                "miles_per_hour": "35251.7174908209"
            },
            "miss_distance": {
                "astronomical": "0.358226273",
                "lunar": "139.350020197",
                "kilometers": "53589887.41883851",
                "miles": "33299211.937091038"
            },
            "orbiting_body": "Earth"
        }
    ],
    "orbital_data": {
        "orbit_id": "10",
        "orbit_determination_date": "2017-04-06 08:53:15",
        "first_observation_date": "2011-06-22",
        "last_observation_date": "2011-06-30",
        "data_arc_in_days": 8,
        "observations_used": 50,
        "orbit_uncertainty": "8",
        "minimum_orbit_intersection": ".0757841",
        "jupiter_tisserand_invariant": "5.196",
        "epoch_osculation": "2455736.5",
        "eccentricity": ".2080080070824841",
        "semi_major_axis": "1.220356695156755",
        "inclination": "10.38041335439952",
        "ascending_node_longitude": "93.87335882381014",
        "orbital_period": "492.4119784493075",
        "perihelion_distance": ".9665127310674321",
        "perihelion_argument": "99.86083588662706",
        "aphelion_distance": "1.474200659246079",
        "perihelion_time": "2455665.620269952100",
        "mean_anomaly": "51.81982554039529",
        "mean_motion": ".7310951312226476",
        "equinox": "J2000",
        "orbit_class": {
            "orbit_class_type": "APO",
            "orbit_class_description": "Near-Earth asteroid orbits which cross the Earth’s orbit similar to that of 1862 Apollo",
            "orbit_class_range": "a (semi-major axis) > 1.0 AU; q (perihelion) < 1.017 AU"
        }
    },
    "is_sentry_object": false
}